[{"OBJECT_NAME":"STARLINK-2687","OBJECT_ID":"2021-040AQ","EPOCH":"2026-03-10T00:00:02.999808","MEAN_MOTION":15.24260316,"ECCENTRICITY":0.00010712,"INCLINATION":53.1324,"RA_OF_ASC_NODE":189.5777,"ARG_OF_PERICENTER":104.2289,"MEAN_ANOMALY":86.7972,"EPHEMERIS_TYPE":0,"CLASSIFICATION_TYPE":"U","NORAD_CAT_ID":48466,"ELEMENT_SET_NO":999,"REV_AT_EPOCH":574,"BSTAR":0.058006,"MEAN_MOTION_DOT":0.01578852,"MEAN_MOTION_DDOT":0},{"OBJECT_NAME":"PELICAN-2","OBJECT_ID":"2025-009Y","EPOCH":"2026-03-09T17:25:39.993312","MEAN_MOTION":15.4033695,"ECCENTRICITY":0.00075715,"INCLINATION":97.4014,"RA_OF_ASC_NODE":159.0326,"ARG_OF_PERICENTER":210.4407,"MEAN_ANOMALY":149.6401,"EPHEMERIS_TYPE":0,"CLASSIFICATION_TYPE":"U","NORAD_CAT_ID":62631,"ELEMENT_SET_NO":999,"REV_AT_EPOCH":6424,"BSTAR":0.0018185571,"MEAN_MOTION_DOT":0.00073958,"MEAN_MOTION_DDOT":0}]
